ALOS (DAICHI)           
1 28931U 06002A   25351.73419158  .00001110  00000+0  19545-3 0  9994
2 28931  98.1098 303.1864 0001361 113.5739 246.5610 14.69501788 61443
H-2A R/B                
1 28932U 06002B   26001.93296735  .00016826  00000+0  86975-3 0  9995
2 28932  98.2322 143.3389 0054686 108.3215 252.3974 15.15036523 84322
RESURS-DK 1             
1 29228U 06021A   26001.54215016  .00005360  00000+0  31477-3 0  9993
2 29228  69.9347  50.6570 0007001 242.1235 117.9222 15.12294480 77377
CZ-4B R/B               
1 29507U 06046C   26001.70301297  .00008617  00000+0  44382-3 0  9992
2 29507  97.5711  46.7875 0034881 137.7194 222.6737 15.16106124 49894
CZ-2C R/B               
1 31114U 07010B   26001.93854641  .00000276  00000+0  14569-3 0  9999
2 31114  98.3975 118.5730 0059828 127.7633 232.8986 14.20219441970247
COSMO-SKYMED 1          
1 31598U 07023A   26001.98993465  .00006840  00000+0  61575-3 0  9994
2 31598  97.8827 192.5237 0001209  87.4246 272.7113 14.95942839  4934
COSMOS 2428             
1 31792U 07029A   26001.98649035  .00000344  00000+0  21041-3 0  9994
2 31792  70.9378 343.3691 0004841 355.3803   4.7273 14.12900410954677
SL-16 R/B               
1 31793U 07029B   26001.96366623  .00000199  00000+0  12785-3 0  9995
2 31793  70.9773 312.6449 0002043 270.2849 152.2147 14.14824455955939
KORONAS-FOTON           
1 33504U 09003A   26001.94404475  .00016403  00000+0  38750-3 0  9992
2 33504  82.4308 345.1625 0012745  46.0451 314.1844 15.41627024935450
CZ-2C R/B               
1 37731U 11030B   26001.79181010  .00002609  00000+0  33612-3 0  9996
2 37731  97.8434 320.4581 0052035 206.7005 191.9399 14.80973370780194
H-2A R/B                
1 38341U 12025E   26001.92629325  .00004542  00000+0  41754-3 0  9994
2 38341  98.4624 323.7175 0044998 169.2687 190.9503 14.94596569738244
SHIJIAN-16 (SJ-16)      
1 39358U 13057A   26001.98658816  .00003637  00000+0  35976-3 0  9995
2 39358  74.9732 311.3415 0017904 273.2242  86.6897 14.92073301661550
