CCSDS_OMM_VERS = 2.0
CREATION_DATE  = 
ORIGINATOR     = 

OBJECT_NAME    = ALOS (DAICHI)
OBJECT_ID      = 2006-002A
CENTER_NAME    = EARTH
REF_FRAME      = TEME
TIME_SYSTEM    = UTC
MEAN_ELEMENT_THEORY = SGP/SGP4

EPOCH          = 2025-12-17T17:37:14.152512
MEAN_MOTION    = 14.69501788
ECCENTRICITY   = .00013612
INCLINATION    = 98.1098
RA_OF_ASC_NODE = 303.1864
ARG_OF_PERICENTER = 113.5739
MEAN_ANOMALY   = 246.5610

EPHEMERIS_TYPE = 0
CLASSIFICATION_TYPE = U
NORAD_CAT_ID   = 28931
ELEMENT_SET_NO = 999
REV_AT_EPOCH   = 6144
BSTAR          = .19545051E-3
MEAN_MOTION_DOT = .111E-4
MEAN_MOTION_DDOT = 0

CCSDS_OMM_VERS = 2.0
CREATION_DATE  = 
ORIGINATOR     = 

OBJECT_NAME    = H-2A R/B
OBJECT_ID      = 2006-002B
CENTER_NAME    = EARTH
REF_FRAME      = TEME
TIME_SYSTEM    = UTC
MEAN_ELEMENT_THEORY = SGP/SGP4

EPOCH          = 2026-01-01T22:23:28.379040
MEAN_MOTION    = 15.15036523
ECCENTRICITY   = .00546862
INCLINATION    = 98.2322
RA_OF_ASC_NODE = 143.3389
ARG_OF_PERICENTER = 108.3215
MEAN_ANOMALY   = 252.3974

EPHEMERIS_TYPE = 0
CLASSIFICATION_TYPE = U
NORAD_CAT_ID   = 28932
ELEMENT_SET_NO = 999
REV_AT_EPOCH   = 8432
BSTAR          = .86975103E-3
MEAN_MOTION_DOT = .16826E-3
MEAN_MOTION_DDOT = 0

CCSDS_OMM_VERS = 2.0
CREATION_DATE  = 
ORIGINATOR     = 

OBJECT_NAME    = RESURS-DK 1
OBJECT_ID      = 2006-021A
CENTER_NAME    = EARTH
REF_FRAME      = TEME
TIME_SYSTEM    = UTC
MEAN_ELEMENT_THEORY = SGP/SGP4

EPOCH          = 2026-01-01T13:00:41.773824
MEAN_MOTION    = 15.12294480
ECCENTRICITY   = .0007001
INCLINATION    = 69.9347
RA_OF_ASC_NODE = 50.6570
ARG_OF_PERICENTER = 242.1235
MEAN_ANOMALY   = 117.9222

EPHEMERIS_TYPE = 0
CLASSIFICATION_TYPE = U
NORAD_CAT_ID   = 29228
ELEMENT_SET_NO = 999
REV_AT_EPOCH   = 7737
BSTAR          = .31477E-3
MEAN_MOTION_DOT = .536E-4
MEAN_MOTION_DDOT = 0

CCSDS_OMM_VERS = 2.0
CREATION_DATE  = 
ORIGINATOR     = 

OBJECT_NAME    = CZ-4B R/B
OBJECT_ID      = 2006-046C
CENTER_NAME    = EARTH
REF_FRAME      = TEME
TIME_SYSTEM    = UTC
MEAN_ELEMENT_THEORY = SGP/SGP4

EPOCH          = 2026-01-01T16:52:20.320608
MEAN_MOTION    = 15.16106124
ECCENTRICITY   = .00348813
INCLINATION    = 97.5711
RA_OF_ASC_NODE = 46.7875
ARG_OF_PERICENTER = 137.7194
MEAN_ANOMALY   = 222.6737

EPHEMERIS_TYPE = 0
CLASSIFICATION_TYPE = U
NORAD_CAT_ID   = 29507
ELEMENT_SET_NO = 999
REV_AT_EPOCH   = 4989
BSTAR          = .44382164E-3
MEAN_MOTION_DOT = .8617E-4
MEAN_MOTION_DDOT = 0

CCSDS_OMM_VERS = 2.0
CREATION_DATE  = 
ORIGINATOR     = 

OBJECT_NAME    = CZ-2C R/B
OBJECT_ID      = 2007-010B
CENTER_NAME    = EARTH
REF_FRAME      = TEME
TIME_SYSTEM    = UTC
MEAN_ELEMENT_THEORY = SGP/SGP4

EPOCH          = 2026-01-01T22:31:30.409824
MEAN_MOTION    = 14.20219441
ECCENTRICITY   = .00598289
INCLINATION    = 98.3975
RA_OF_ASC_NODE = 118.5730
ARG_OF_PERICENTER = 127.7633
MEAN_ANOMALY   = 232.8986

EPHEMERIS_TYPE = 0
CLASSIFICATION_TYPE = U
NORAD_CAT_ID   = 31114
ELEMENT_SET_NO = 999
REV_AT_EPOCH   = 97024
BSTAR          = .14568655E-3
MEAN_MOTION_DOT = .276E-5
MEAN_MOTION_DDOT = 0

CCSDS_OMM_VERS = 2.0
CREATION_DATE  = 
ORIGINATOR     = 

OBJECT_NAME    = COSMO-SKYMED 1
OBJECT_ID      = 2007-023A
CENTER_NAME    = EARTH
REF_FRAME      = TEME
TIME_SYSTEM    = UTC
MEAN_ELEMENT_THEORY = SGP/SGP4

EPOCH          = 2026-01-01T23:45:30.353760
MEAN_MOTION    = 14.95942839
ECCENTRICITY   = .00012098
INCLINATION    = 97.8827
RA_OF_ASC_NODE = 192.5237
ARG_OF_PERICENTER = 87.4246
MEAN_ANOMALY   = 272.7113

EPHEMERIS_TYPE = 0
CLASSIFICATION_TYPE = U
NORAD_CAT_ID   = 31598
ELEMENT_SET_NO = 999
REV_AT_EPOCH   = 493
BSTAR          = .61575039E-3
MEAN_MOTION_DOT = .684E-4
MEAN_MOTION_DDOT = 0

CCSDS_OMM_VERS = 2.0
CREATION_DATE  = 
ORIGINATOR     = 

OBJECT_NAME    = COSMOS 2428
OBJECT_ID      = 2007-029A
CENTER_NAME    = EARTH
REF_FRAME      = TEME
TIME_SYSTEM    = UTC
MEAN_ELEMENT_THEORY = SGP/SGP4

EPOCH          = 2026-01-01T23:40:32.766240
MEAN_MOTION    = 14.12900410
ECCENTRICITY   = .00048412
INCLINATION    = 70.9378
RA_OF_ASC_NODE = 343.3691
ARG_OF_PERICENTER = 355.3803
MEAN_ANOMALY   = 4.7273

EPHEMERIS_TYPE = 0
CLASSIFICATION_TYPE = U
NORAD_CAT_ID   = 31792
ELEMENT_SET_NO = 999
REV_AT_EPOCH   = 95467
BSTAR          = .21040507E-3
MEAN_MOTION_DOT = .344E-5
MEAN_MOTION_DDOT = 0

CCSDS_OMM_VERS = 2.0
CREATION_DATE  = 
ORIGINATOR     = 

OBJECT_NAME    = SL-16 R/B
OBJECT_ID      = 2007-029B
CENTER_NAME    = EARTH
REF_FRAME      = TEME
TIME_SYSTEM    = UTC
MEAN_ELEMENT_THEORY = SGP/SGP4

EPOCH          = 2026-01-01T23:07:40.762272
MEAN_MOTION    = 14.14824455
ECCENTRICITY   = .00020434
INCLINATION    = 70.9773
RA_OF_ASC_NODE = 312.6449
ARG_OF_PERICENTER = 270.2849
MEAN_ANOMALY   = 152.2147

EPHEMERIS_TYPE = 0
CLASSIFICATION_TYPE = U
NORAD_CAT_ID   = 31793
ELEMENT_SET_NO = 999
REV_AT_EPOCH   = 95593
BSTAR          = .12785359E-3
MEAN_MOTION_DOT = .199E-5
MEAN_MOTION_DDOT = 0

CCSDS_OMM_VERS = 2.0
CREATION_DATE  = 
ORIGINATOR     = 

OBJECT_NAME    = KORONAS-FOTON
OBJECT_ID      = 2009-003A
CENTER_NAME    = EARTH
REF_FRAME      = TEME
TIME_SYSTEM    = UTC
MEAN_ELEMENT_THEORY = SGP/SGP4

EPOCH          = 2026-01-01T22:39:25.466400
MEAN_MOTION    = 15.41627024
ECCENTRICITY   = .00127453
INCLINATION    = 82.4308
RA_OF_ASC_NODE = 345.1625
ARG_OF_PERICENTER = 46.0451
MEAN_ANOMALY   = 314.1844

EPHEMERIS_TYPE = 0
CLASSIFICATION_TYPE = U
NORAD_CAT_ID   = 33504
ELEMENT_SET_NO = 999
REV_AT_EPOCH   = 93545
BSTAR          = .38750075E-3
MEAN_MOTION_DOT = .16403E-3
MEAN_MOTION_DDOT = 0

CCSDS_OMM_VERS = 2.0
CREATION_DATE  = 
ORIGINATOR     = 

OBJECT_NAME    = CZ-2C R/B
OBJECT_ID      = 2011-030B
CENTER_NAME    = EARTH
REF_FRAME      = TEME
TIME_SYSTEM    = UTC
MEAN_ELEMENT_THEORY = SGP/SGP4

EPOCH          = 2026-01-01T19:00:12.392640
MEAN_MOTION    = 14.80973370
ECCENTRICITY   = .00520358
INCLINATION    = 97.8434
RA_OF_ASC_NODE = 320.4581
ARG_OF_PERICENTER = 206.7005
MEAN_ANOMALY   = 191.9399

EPHEMERIS_TYPE = 0
CLASSIFICATION_TYPE = U
NORAD_CAT_ID   = 37731
ELEMENT_SET_NO = 999
REV_AT_EPOCH   = 78019
BSTAR          = .33612355E-3
MEAN_MOTION_DOT = .2609E-4
MEAN_MOTION_DDOT = 0

CCSDS_OMM_VERS = 2.0
CREATION_DATE  = 
ORIGINATOR     = 

OBJECT_NAME    = H-2A R/B
OBJECT_ID      = 2012-025E
CENTER_NAME    = EARTH
REF_FRAME      = TEME
TIME_SYSTEM    = UTC
MEAN_ELEMENT_THEORY = SGP/SGP4

EPOCH          = 2026-01-01T22:13:51.736800
MEAN_MOTION    = 14.94596569
ECCENTRICITY   = .00449987
INCLINATION    = 98.4624
RA_OF_ASC_NODE = 323.7175
ARG_OF_PERICENTER = 169.2687
MEAN_ANOMALY   = 190.9503

EPHEMERIS_TYPE = 0
CLASSIFICATION_TYPE = U
NORAD_CAT_ID   = 38341
ELEMENT_SET_NO = 999
REV_AT_EPOCH   = 73824
BSTAR          = .41754451E-3
MEAN_MOTION_DOT = .4542E-4
MEAN_MOTION_DDOT = 0

CCSDS_OMM_VERS = 2.0
CREATION_DATE  = 
ORIGINATOR     = 

OBJECT_NAME    = SHIJIAN-16 (SJ-16)
OBJECT_ID      = 2013-057A
CENTER_NAME    = EARTH
REF_FRAME      = TEME
TIME_SYSTEM    = UTC
MEAN_ELEMENT_THEORY = SGP/SGP4

EPOCH          = 2026-01-01T23:40:41.217024
MEAN_MOTION    = 14.92073301
ECCENTRICITY   = .0017904
INCLINATION    = 74.9732
RA_OF_ASC_NODE = 311.3415
ARG_OF_PERICENTER = 273.2242
MEAN_ANOMALY   = 86.6897

EPHEMERIS_TYPE = 0
CLASSIFICATION_TYPE = U
NORAD_CAT_ID   = 39358
ELEMENT_SET_NO = 999
REV_AT_EPOCH   = 66155
BSTAR          = .35975966E-3
MEAN_MOTION_DOT = .3637E-4
MEAN_MOTION_DDOT = 0

